INTELSAT 10 (IS-10)     
1 26766U 01019A   25276.44206736  .00000034  00000+0  00000+0 0  9997
2 26766   8.4557  61.8528 0004297 188.3700   2.5852  0.99073872 43034
INTELSAT 902 (IS-902)   
1 26900U 01039A   25272.31989225 -.00000278  00000+0  00000+0 0  9993
2 26900   5.4543  74.9568 0004246 114.6031 243.8410  1.00270404 88074
INTELSAT 904 (IS-904)   
1 27380U 02007A   25276.27774666 -.00000198  00000+0  00000+0 0  9993
2 27380   6.2720  72.2501 0002733  86.8378 285.6539  1.00271312 49199
DIRECTV 5 (TEMPO 1)     
1 27426U 02023A   25276.54684648 -.00000053  00000+0  00000+0 0  9992
2 27426   4.2159  78.5059 0003445 125.4494 255.3173  1.00271803 85554
INTELSAT 905 (IS-905)   
1 27438U 02027A   25276.54147312  .00000100  00000+0  00000+0 0  9993
2 27438   6.1025  72.8772 0002481 106.9125 250.4605  1.00271335 48783
GALAXY 3C (G-3C)        
1 27445U 02030A   25276.54987984 -.00000149  00000+0  00000+0 0  9996
2 27445   3.0781  81.2359 0001970  62.0463 332.3594  1.00271386 43924
INTELSAT 906 (IS-906)   
1 27513U 02041A   25276.58116664  .00000018  00000+0  00000+0 0  9991
2 27513   5.1471  76.0734 0003637 150.2212  59.6040  1.00271326 84454
GALAXY 13 (HORIZONS-1)  
1 27954U 03044A   25276.53895978  .00000134  00000+0  00000+0 0  9990
2 27954   0.7503  87.4606 0002179 104.8528 224.2090  1.00271204 43993
INTELSAT 10-02          
1 28358U 04022A   25276.35444698  .00000000  00000+0  00000+0 0  9997
2 28358   0.0219 194.6058 0000958  25.5059 278.8201  1.00270038 77981
XM-3 (RHYTHM)           
1 28626U 05008A   25276.55161317 -.00000199  00000+0  00000+0 0  9996
2 28626   0.0069 295.6637 0000118 341.1857 207.9317  1.00270885 40057
DIRECTV 8               
1 28659U 05019A   25276.54511315  .00000001  00000+0  00000+0 0  9991
2 28659   0.0044 100.9029 0003267 103.0884 245.7240  1.00271548 74499
GALAXY 28 (G-28)        
1 28702U 05022A   25276.55109317 -.00000184  00000+0  00000+0 0  9993
2 28702   2.6342  82.1193 0001611 118.4823 281.6050  1.00271185 49413
GALAXY 16 (G-16)        
1 29236U 06023A   25276.54909983 -.00000127  00000+0  00000+0 0  9991
2 29236   0.0196 194.3521 0002689 354.1987 282.6466  1.00272370 70404
DIRECTV 9S              
1 29494U 06043A   25276.54866649 -.00000112  00000+0  00000+0 0  9994
2 29494   1.7520  84.0328 0002991 103.9827 280.8231  1.00272315 48817
GALAXY 17 (G-17)        
1 31307U 07016B   25276.48046086 -.00000204  00000+0  00000+0 0  9991
2 31307   2.3159  83.1507 0005571 150.9709 226.3031  1.00270657 67232
DIRECTV 10              
1 31862U 07032A   25276.23337075 -.00000103  00000+0  00000+0 0  9997
2 31862   0.0436   5.9524 0000668 222.2823 125.2061  1.00271831 43019
INTELSAT 11 (IS-11)     
1 32253U 07044B   25276.53193975 -.00000187  00000+0  00000+0 0  9999
2 32253   2.8901  81.8148 0008325 128.0116 168.5988  0.99053425 65906
HORIZONS-2              
1 32388U 07063B   25276.48271420 -.00000251  00000+0  00000+0 0  9997
2 32388   1.9330  83.7966 0002741 143.4704 245.1579  1.00269684 65244
DIRECTV 11              
1 32729U 08013A   25276.54901316 -.00000125  00000+0  00000+0 0  9993
2 32729   0.0076 290.7472 0000353 178.9864   1.2499  1.00271042 43024
GALAXY 18 (G-18)        
1 32951U 08024A   25276.54433314  .00000026  00000+0  00000+0 0  9999
2 32951   0.0192 160.6763 0003043  31.2944 253.4833  1.00270455 43274
INTELSAT 25 (IS-25)     
1 33153U 08034A   25276.41970727 -.00000221  00000+0  00000+0 0  9993
2 33153   2.0396  83.4885 0004078 131.9804 276.5357  1.00271557 63123
GALAXY 19 (G-19)        
1 33376U 08045A   25276.54944650 -.00000139  00000+0  00000+0 0  9990
2 33376   0.0300 253.9156 0002826 292.2485 287.1611  1.00272668 62330
FM-5                    
1 35493U 09034A   25276.48028752 -.00000200  00000+0  00000+0 0  9999
2 35493   0.0286 258.5538 0000769 209.9474 350.7066  1.00270736 44062
INTELSAT 14 (IS-14)     
1 36097U 09064A   25276.44350264  .00000000  00000+0  00000+0 0  9992
2 36097   0.0165 169.1247 0002755  37.3566 280.5879  1.00269823 58034
INTELSAT 15 (IS-15)     
1 36106U 09067A   25276.58557387 -.00000185  00000+0  00000+0 0  9991
2 36106   0.0145 242.2505 0002291 303.3228 122.9440  1.00272294 38654
DIRECTV 12              
1 36131U 09075A   25276.54831983 -.00000103  00000+0  00000+0 0  9991
2 36131   0.0377   4.6380 0000416 186.1471 276.4197  1.00271608 43988
INTELSAT 16 (IS-16)     
1 36397U 10006A   25276.55351985 -.00000244  00000+0  00000+0 0  9997
2 36397   0.0154 262.1758 0002346 300.0717 293.3508  1.00272486 57084
XM-5                    
1 37185U 10053A   25276.47448083 -.00000023  00000+0  00000+0 0  9997
2 37185   0.0618 268.2878 0000518 184.7297 335.0500  1.00273762 54906
INTELSAT 17 (IS-17)     
1 37238U 10065B   25276.51044766 -.00000001  00000+0  00000+0 0  9990
2 37238   0.0201 210.3584 0002615 354.2905  57.5801  1.00271422 50676
INTELSAT 28 (IS-28)     
1 37392U 11016A   25276.41970727 -.00000223  00000+0  00000+0 0  9998
2 37392   1.1360  85.9431 0004151 111.3672 294.4878  1.00271836 50712
INTELSAT 18 (IS-18)     
1 37834U 11056A   25276.53306641  .00000054  00000+0  00000+0 0  9995
2 37834   0.0140 124.5827 0001856  58.4686 201.3576  1.00272911 51236
INTELSAT 22 (IS-22)     
1 38098U 12011A   25276.58297385 -.00000058  00000+0  00000+0 0  9994
2 38098   0.0195 229.2686 0002099 335.4601  89.7933  1.00271790  4619
INTELSAT 19 (IS-19)     
1 38356U 12030A   25276.50183372  .00000000  00000+0  00000+0 0  9990
2 38356   0.0178 187.5340 0003010   4.9028 166.6876  1.00268809 47878
INTELSAT 20 (IS-20)     
1 38740U 12043A   25276.36805370 -.00000024  00000+0  00000+0 0  9991
2 38740   0.0119 194.5900 0001888 333.4395  45.2945  1.00271304 48175
INTELSAT 21 (IS-21)     
1 38749U 12045A   25276.55044631 -.00000284  00000+0  00000+0 0  9996
2 38749   0.0296  94.3557 0002090 103.7292 314.6043  1.00272956 47956
INTELSAT 23 (IS-23)     
1 38867U 12057A   25276.41546058 -.00000284  00000+0  00000+0 0  9995
2 38867   0.0219 238.7974 0002213  26.9979 203.1827  1.00273025 47381
FM-6                    
1 39360U 13058A   25276.39914644 -.00000017  00000+0  00000+0 0  9997
2 39360   0.0259 125.8507 0002314  50.8273 223.1976  1.00273940 43487
INTELSAT 30 (IS-30)     
1 40271U 14062A   25275.62210556  .00000000  00000+0  00000+0 0  9993
2 40271   0.0143 169.2906 0001410 246.0478  85.1481  1.00271657  4206
DIRECTV 14              
1 40333U 14078B   25276.54901316 -.00000125  00000+0  00000+0 0  9991
2 40333   0.0032 185.9195 0000584  15.7879 269.2382  1.00270315 39476
DIRECTV 15              
1 40663U 15026A   25276.46711274 -.00000103  00000+0  00000+0 0  9990
2 40663   0.0392  87.3589 0000597   9.0944 341.2922  1.00273896 37887
SKY MEXICO-1            
1 40664U 15026B   25276.55308652 -.00000234  00000+0  00000+0 0  9998
2 40664   0.0159 253.8154 0002254 305.6655 293.3893  1.00272920 37884
INTELSAT 34 (IS-34)     
1 40874U 15039A   25276.45262582 -.00000285  00000+0  00000+0 0  9991
2 40874   0.0210 263.2087 0001461 120.2691  96.3874  1.00270764 37058
INTELSAT 31 (IS-31)     
1 41581U 16035A   25276.47846751 -.00000151  00000+0  00000+0 0  9994
2 41581   0.0161 227.1694 0001692 359.4581 223.0023  1.00272676 34104
INTELSAT 36 (IS-36)     
1 41747U 16053A   25276.51088100  .00000000  00000+0  00000+0 0  9991
2 41747   0.0134 193.2188 0001530 151.2312 280.4089  1.00269073 33374
INTELSAT 32E (IS-32E)   
1 41945U 17007B   25276.38725362 -.00000268  00000+0  00000+0 0  9991
2 41945   0.0184 116.0293 0000317 276.2516  76.3088  1.00273025 31657
INTELSAT 35E (IS-35E)   
1 42818U 17041A   25276.41910059 -.00000237  00000+0  00000+0 0  9998
2 42818   0.0209 222.5698 0002335 336.4186 289.7776  1.00272439 30247
INTELSAT 37E (IS-37E)   
1 42950U 17059A   25276.42239395  .00000000  00000+0  00000+0 0  9999
2 42950   0.0228 181.7886 0002830  10.2353 314.4093  1.00270211 29492
AZERSPACE 2 (IS-38)     
1 43632U 18074A   25276.57761329  .00000000  00000+0  00000+0 0  9998
2 43632   0.0251 200.9498 0001615 351.6380  72.9872  1.00270358 25872
HORIZONS-3E             
1 43633U 18074B   25276.36017095  .00000000  00000+0  00000+0 0  9990
2 43633   0.0216 201.7743 0001508  88.2941  20.9076  1.00269343 25762
AT&T T-16               
1 44333U 19034A   25276.24367215 -.00000115  00000+0  00000+0 0  9992
2 44333   0.0269  99.8237 0000353 347.1102 272.1455  1.00272561 23053
INTELSAT 39 (IS-39)     
1 44476U 19049B   25276.15277279  .00000034  00000+0  00000+0 0  9995
2 44476   0.0184 226.8355 0000378 150.5397 111.7043  1.00270359 22557
GALAXY 30 (G-30)        
1 46114U 20056C   25276.54389980  .00000037  00000+0  00000+0 0  9995
2 46114   0.0213 223.3045 0002489 328.0075 252.0122  1.00271402 18719
GALAXY 33 (G-33)        
1 54026U 22128A   25276.54233979  .00000079  00000+0  00000+0 0  9990
2 54026   0.0211 230.4579 0001848 312.5691 251.7342  1.00272308 11167
GALAXY 34 (G-34)        
1 54027U 22128B   25276.54311980  .00000000  00000+0  00000+0 0  9994
2 54027   0.0218 188.2993 0001914   4.3726 246.3411  1.00274743 11335
GALAXY 31 (G-31)        
1 54243U 22153A   25276.54467980  .00000013  00000+0  00000+0 0  9998
2 54243   0.0137 211.0011 0001560 359.4732 237.1284  1.00271821  4555
GALAXY 32 (G-32)        
1 54244U 22153B   25276.26648145  .00000000  00000+0  00000+0 0  9998
2 54244   0.0171 182.1732 0000371  85.2836 109.6948  1.00269308 10565
GALAXY 35 (G-35)        
1 54741U 22170A   25276.55022650 -.00000162  00000+0  00000+0 0  9998
2 54741   0.0188 229.3796 0002028 321.6727 286.4462  1.00271718 10323
GALAXY 36 (G-36)        
1 54742U 22170B   25276.55109317 -.00000185  00000+0  00000+0 0  9990
2 54742   0.0122 159.5824 0001692 345.2335 337.1041  1.00272162 10209
GALAXY 37 (G-37)        
1 57493U 23112A   25276.54355314  .00000000  00000+0  00000+0 0  9997
2 57493   0.0187 163.8076 0002353  49.2820 228.0769  1.00269507  7961
